[Satellite]
VERSION=1.1
NAME=RAPIDEYE 1
NICKNAME=RAPIDEYE 1
TLE1=1 33314U 08040C   17186.20288076  .00000042  00000-0  12440-4 0  9993
TLE2=2 33314  97.8195 266.3177 0023076 308.5608  51.3544 14.79839531478028
